NORAD_CAT_ID,OBJECT_NAME,OBJECT_TYPE,EPOCH,MEAN_MOTION,ECCENTRICITY,INCLINATION,RA_OF_ASC_NODE,ARG_OF_PERICENTER,MEAN_ANOMALY,BSTAR,MEAN_MOTION_DOT,MEAN_MOTION_DDOT,TLE_LINE0,TLE_LINE1,TLE_LINE2,SEMIMAJOR_AXIS,PERIOD,APOGEE,PERIGEE,DECAYED
52349.0,STARLINK-3819,PAYLOAD,2023-03-11 10:12:02,15.08841023,0.0001553,53.217,71.4611,105.5033,254.6131,0.00013472,1.857e-05,0.0,0 STARLINK-3819,1 52349U 22045U   23070.42502514  .00001857  00000-0  13472-3 0  9992,2 52349  53.2170  71.4611 0001553 105.5033 254.6131 15.08841023 50586,6917.877,95.437,540.817,538.668,0.0
52349.0,STARLINK-3819,PAYLOAD,2023-03-11 11:47:24,15.08847618,0.0001777,53.2174,71.1651,121.2511,238.8655,0.00024298,3.582e-05,0.0,0 STARLINK-3819,1 52349U 22045U   23070.49126145  .00003582  00000-0  24298-3 0  9996,2 52349  53.2174  71.1651 0001777 121.2511 238.8655 15.08847618 50597,6917.857,95.437,540.951,538.493,0.0
52349.0,STARLINK-3819,PAYLOAD,2023-03-12 00:30:30,15.08836536,0.0002115,53.2182,68.7878,117.8904,242.2303,7.9264e-05,9.73e-06,0.0,0 STARLINK-3819,1 52349U 22045U   23071.02118908  .00000973  00000-0  79264-4 0  9999,2 52349  53.2182  68.7878 0002115 117.8904 242.2303 15.08836536 50678,6917.891,95.438,541.219,538.293,0.0
52349.0,STARLINK-3819,PAYLOAD,2023-03-12 10:02:49,15.08839621,0.0001619,53.2182,67.001,114.0851,246.0311,0.00024796,3.66e-05,0.0,0 STARLINK-3819,1 52349U 22045U   23071.41862871  .00003660  00000-0  24796-3 0  9992,2 52349  53.2182  67.0010 0001619 114.0851 246.0311 15.08839621 50732,6917.882,95.438,540.867,538.627,0.0
52349.0,STARLINK-3819,PAYLOAD,2023-03-13 08:18:13,15.08852041,0.000129,53.2181,62.8375,95.4353,264.6786,0.00041089,6.26e-05,0.0,0 STARLINK-3819,1 52349U 22045U   23072.34598469  .00006260  00000-0  41089-3 0  9997,2 52349  53.2181  62.8375 0001290  95.4353 264.6786 15.08852041 50870,6917.844,95.437,540.601,538.816,0.0
52349.0,STARLINK-3819,PAYLOAD,2023-03-13 22:36:41,15.08843223,0.0001635,53.2178,60.1641,89.6062,270.5118,0.00018213,2.612e-05,0.0,0 STARLINK-3819,1 52349U 22045U   23072.94214738  .00002612  00000-0  18213-3 0  9997,2 52349  53.2178  60.1641 0001635  89.6062 270.5118 15.08843223 50965,6917.871,95.437,540.867,538.604,0.0
52349.0,STARLINK-3819,PAYLOAD,2023-03-14 04:58:14,15.08838301,0.0001218,53.2175,58.9729,99.6063,260.5067,1.7127e-05,-1.5e-07,0.0,0 STARLINK-3819,1 52349U 22045U   23073.20710723 -.00000015  00000-0  17127-4 0  9992,2 52349  53.2175  58.9729 0001218  99.6063 260.5067 15.08838301 51002,6917.886,95.438,540.593,538.908,0.0
52349.0,STARLINK-3819,PAYLOAD,2023-03-14 08:09:00,15.0884078,0.0001191,53.2175,58.378,96.9935,263.1192,6.5344e-05,7.52e-06,0.0,0 STARLINK-3819,1 52349U 22045U   23073.33958851  .00000752  00000-0  65344-4 0  9993,2 52349  53.2175  58.3780 0001191  96.9935 263.1192 15.08840780 51025,6917.878,95.438,540.567,538.919,0.0
52349.0,STARLINK-3819,PAYLOAD,2023-03-14 16:05:56,15.08841014,0.0001284,53.2184,56.8918,82.4246,277.6892,7.3581e-05,8.83e-06,0.0,0 STARLINK-3819,1 52349U 22045U   23073.67078955  .00000883  00000-0  73581-4 0  9995,2 52349  53.2184  56.8918 0001284  82.4246 277.6892 15.08841014 51072,6917.877,95.437,540.631,538.854,0.0
52349.0,STARLINK-3819,PAYLOAD,2023-03-15 04:49:00,15.0886008,0.0001041,53.2172,54.5144,80.665,279.446,0.00042035,6.412e-05,0.0,0 STARLINK-3819,1 52349U 22045U   23074.20070074  .00006412  00000-0  42035-3 0  9992,2 52349  53.2172  54.5144 0001041  80.6650 279.4460 15.08860080 51159,6917.819,95.436,540.404,538.964,0.0
52349.0,STARLINK-3819,PAYLOAD,2023-03-15 09:35:09,15.08877625,0.0001244,53.2174,53.6212,79.9889,280.1243,0.0012657,0.00019934,0.0,0 STARLINK-3819,1 52349U 22045U   23074.39941870  .00019934  00000-0  12657-2 0  9992,2 52349  53.2174  53.6212 0001244  79.9889 280.1243 15.08877625 51181,6917.765,95.435,540.491,538.77,0.0
52349.0,STARLINK-3819,PAYLOAD,2023-03-15 22:18:15,15.08847392,0.0001448,53.2175,51.2429,80.3593,279.7563,0.00017662,2.525e-05,0.0,0 STARLINK-3819,1 52349U 22045U   23074.92934440  .00002525  00000-0  17662-3 0  9996,2 52349  53.2175  51.2429 0001448  80.3593 279.7563 15.08847392 51266,6917.858,95.437,540.725,538.721,0.0
52349.0,STARLINK-3819,PAYLOAD,2023-03-16 04:39:47,15.08854814,0.0001199,53.2175,50.0534,100.0475,260.0652,0.00055628,8.58e-05,0.0,0 STARLINK-3819,1 52349U 22045U   23075.19430149  .00008580  00000-0  55628-3 0  9994,2 52349  53.2175  50.0534 0001199 100.0475 260.0652 15.08854814 51306,6917.835,95.437,540.53,538.871,0.0
52349.0,STARLINK-3819,PAYLOAD,2023-03-16 09:25:56,15.08861912,0.0001123,53.2176,49.1618,100.645,259.4669,0.0017548,0.00027767,0.0,0 STARLINK-3819,1 52349U 22045U   23075.39302051  .00027767  00000-0  17548-2 0  9992,2 52349  53.2176  49.1618 0001123 100.6450 259.4669 15.08861912 51335,6917.813,95.436,540.455,538.902,0.0
52349.0,STARLINK-3819,PAYLOAD,2023-03-16 15:47:30,15.08821249,0.000112,53.2178,47.9719,88.9631,271.1489,0.00094594,0.00014791,0.0,0 STARLINK-3819,1 52349U 22045U   23075.65798737  .00014791  00000-0  94594-3 0  9991,2 52349  53.2178  47.9719 0001120  88.9631 271.1489 15.08821249 51375,6917.938,95.439,540.578,539.028,0.0
52349.0,STARLINK-3819,PAYLOAD,2023-03-16 22:09:02,15.08839044,0.000143,53.218,46.7829,89.0899,271.0257,0.0011029,0.00017308,0.0,0 STARLINK-3819,1 52349U 22045U   23075.92295023  .00017308  00000-0  11029-2 0  9999,2 52349  53.2180  46.7829 0001430  89.0899 271.0257 15.08839044 51418,6917.883,95.438,540.738,538.759,0.0
52349.0,STARLINK-3819,PAYLOAD,2023-03-17 07:41:21,15.0883837,0.0001225,53.2182,44.9987,86.3864,273.7269,0.00129,0.00020301,0.0,0 STARLINK-3819,1 52349U 22045U   23076.32039225  .00020301  00000-0  12900-2 0  9990,2 52349  53.2182  44.9987 0001225  86.3864 273.7269 15.08838370 51478,6917.885,95.438,540.598,538.903,0.0
52349.0,STARLINK-3819,PAYLOAD,2023-03-18 04:21:22,15.08858641,0.000117,53.2179,41.1322,88.9197,271.1929,0.0010475,0.00016431,0.0,0 STARLINK-3819,1 52349U 22045U   23077.18150998  .00016431  00000-0  10475-2 0  9990,2 52349  53.2179  41.1322 0001170  88.9197 271.1929 15.08858641 51605,6917.823,95.436,540.498,538.879,0.0
52349.0,STARLINK-3819,PAYLOAD,2023-03-18 21:50:36,15.08850495,0.0001161,53.2184,37.8621,85.5557,274.5568,0.00047493,7.281e-05,0.0,0 STARLINK-3819,1 52349U 22045U   23077.91015029  .00007281  00000-0  47493-3 0  9990,2 52349  53.2184  37.8621 0001161  85.5557 274.5568 15.08850495 51715,6917.848,95.437,540.516,538.91,0.0
52349.0,STARLINK-3819,PAYLOAD,2023-03-19 04:12:09,15.08849533,0.0001075,53.2181,36.6728,78.1884,281.9229,0.00033064,4.98e-05,0.0,0 STARLINK-3819,1 52349U 22045U   23078.17510946  .00004980  00000-0  33064-3 0  9999,2 52349  53.2181  36.6728 0001075  78.1884 281.9229 15.08849533 51753,6917.851,95.437,540.46,538.973,0.0
52349.0,STARLINK-3819,PAYLOAD,2023-03-19 13:44:28,15.08845925,0.0001055,53.2172,34.8864,71.0573,289.0533,0.00023253,3.415e-05,0.0,0 STARLINK-3819,1 52349U 22045U   23078.57255005  .00003415  00000-0  23253-3 0  9996,2 52349  53.2172  34.8864 0001055  71.0573 289.0533 15.08845925 51814,6917.862,95.437,540.457,538.997,0.0
52349.0,STARLINK-3819,PAYLOAD,2023-03-19 21:41:24,15.08837812,0.000124,53.2194,33.4048,94.3869,265.7265,9.5557e-05,1.233e-05,0.0,0 STARLINK-3819,1 52349U 22045U   23078.90375150  .00001233  00000-0  95557-4 0  9990,2 52349  53.2194  33.4048 0001240  94.3869 265.7265 15.08837812 51863,6917.887,95.438,540.61,538.894,0.0
52349.0,STARLINK-3819,PAYLOAD,2023-03-20 05:38:19,15.08856899,0.0001154,53.2187,31.9161,101.8733,258.2389,0.00079558,0.00012402,0.0,0 STARLINK-3819,1 52349U 22045U   23079.23494679  .00012402  00000-0  79558-3 0  9997,2 52349  53.2187  31.9161 0001154 101.8733 258.2389 15.08856899 51918,6917.829,95.436,540.492,538.895,0.0
52349.0,STARLINK-3819,PAYLOAD,2023-03-21 05:29:06,15.08844442,0.0001411,53.2192,27.4535,81.7404,278.3748,0.00040622,6.184e-05,0.0,0 STARLINK-3819,1 52349U 22045U   23080.22855277  .00006184  00000-0  40622-3 0  9993,2 52349  53.2192  27.4535 0001411  81.7404 278.3748 15.08844442 52066,6917.867,95.437,540.708,538.756,0.0
52349.0,STARLINK-3819,PAYLOAD,2023-03-22 03:44:31,15.08845403,0.0001357,53.2186,23.2924,84.7646,275.3501,0.0013769,0.00021696,0.0,0 STARLINK-3819,1 52349U 22045U   23081.15591930  .00021696  00000-0  13769-2 0  9995,2 52349  53.2186  23.2924 0001357  84.7646 275.3501 15.08845403 52203,6917.864,95.437,540.668,538.79,0.0
52349.0,STARLINK-3819,PAYLOAD,2023-03-22 05:19:54,15.08853439,0.0001348,53.2184,22.9949,93.9102,266.2045,0.0017502,0.00027686,0.0,0 STARLINK-3819,1 52349U 22045U   23081.22215799  .00027686  00000-0  17502-2 0  9993,2 52349  53.2184  22.9949 0001348  93.9102 266.2045 15.08853439 52214,6917.839,95.437,540.637,538.772,0.0
52349.0,STARLINK-3819,PAYLOAD,2023-03-23 05:10:40,15.0887344,0.0001763,53.2201,18.53,76.4926,283.6263,0.0010436,0.00016375,0.0,0 STARLINK-3819,1 52349U 22045U   23082.21574431  .00016375  00000-0  10436-2 0  9996,2 52349  53.2201  18.5300 0001763  76.4926 283.6263 15.08873440 52362,6917.778,95.435,540.863,538.424,0.0
52349.0,STARLINK-3819,PAYLOAD,2023-03-24 05:01:27,15.08890153,0.0001381,53.2183,14.0737,71.182,288.9322,0.0019309,0.00030618,0.0,0 STARLINK-3819,1 52349U 22045U   23083.20934770  .00030618  00000-0  19309-2 0  9996,2 52349  53.2183  14.0737 0001381  71.1820 288.9322 15.08890153 52518,6917.727,95.434,540.547,538.637,0.0
52349.0,STARLINK-3819,PAYLOAD,2023-03-24 22:30:42,15.08839452,0.000118,53.2165,10.8051,76.6506,283.4618,0.0011651,0.00018303,0.0,0 STARLINK-3819,1 52349U 22045U   23083.93798777  .00018303  00000-0  11651-2 0  9990,2 52349  53.2165  10.8051 0001180  76.6506 283.4618 15.08839452 52624,6917.882,95.438,540.563,538.931,0.0
52349.0,STARLINK-3819,PAYLOAD,2023-03-25 01:41:28,15.08849937,0.0001046,53.2178,10.2096,75.336,284.7748,0.0015066,0.00023777,0.0,0 STARLINK-3819,1 52349U 22045U   23084.07046639  .00023777  00000-0  15066-2 0  9994,2 52349  53.2178  10.2096 0001046  75.3360 284.7748 15.08849937 52645,6917.85,95.437,540.439,538.991,0.0
